SL-3 R/B                
1 19046U 88032B   22199.86298173  .00001828  00000+0  13514-3 0  9993
2 19046  97.3937 197.4274 0037851 130.4145 230.0394 15.03824495851338
SL-16 R/B               
1 19120U 88039B   22200.52128410 -.00000017  00000+0  15059-4 0  9992
2 19120  71.0158 358.1934 0023442 222.8076 137.1224 14.19253340770042
COSMOS 1953             
1 19210U 88050A   22200.46942538  .00003575  00000+0  23350-3 0  9996
2 19210  82.5156  29.6377 0014355  33.8517 326.3624 15.07463926857516
SL-8 R/B                
1 19257U 88053B   22199.99305193  .00000145  00000+0  56833-4 0  9998
2 19257  74.0485  40.5815 0020672 193.4351 274.4074 14.37614089785719
COSMOS 1975             
1 19573U 88093A   22199.87092906  .00002896  00000+0  19449-3 0  9991
2 19573  82.5192 346.1476 0015557  85.1051 275.1952 15.06353557818017
SL-14 R/B               
1 19574U 88093B   22200.05688075  .00000323  00000+0  36131-4 0  9994
2 19574  82.5306 207.8019 0023070 109.1348 304.9340 14.83520193824864
SL-16 R/B               
1 19650U 88102B   22199.83231692  .00000002  00000+0  25248-4 0  9993
2 19650  70.9999  68.8516 0016167 239.7818 120.1705 14.15832860738641
INTERCOSMOS 24          
1 20261U 89080A   22199.82382742  .00000577  00000+0  16306-3 0  9992
2 20261  82.6004 247.4218 1202697 130.6896 240.5174 12.56419213499594
SL-14 R/B               
1 20262U 89080C   22199.74078653  .00000138  00000+0  38925-4 0  9992
2 20262  82.5953 306.2568 1236232 341.2782  14.6375 12.49083332494022
DELTA 2 R/B(1)          
1 20303U 89085B   22200.48898117  .00015762  00000+0  39566-3 0  9992
2 20303  35.6378 244.1543 0078344 141.0977 219.5424 15.36008200784843
DELTA 1 R/B             
1 20323U 89089B   22199.85556543  .00000219  00000+0  65716-4 0  9998
2 20323  97.0780 236.5060 0071412 356.9159   3.1588 14.48539221703080
ARIANE 40 R/B           
1 20443U 90005H   22200.42034468  .00000191  00000+0  77064-4 0  9992
2 20443  98.4820 267.8028 0009568 225.1841 134.8569 14.38247153701899
DELTA 2 R/B(1)          
1 20453U 90008B   22200.12506389  .00005088  00000+0  26430-3 0  9999
2 20453  35.6248  75.2083 0264587 197.2663 161.8912 14.90157226724632
COSMOS 2058             
1 20465U 90010A   22199.65183925  .00001520  00000+0  12308-3 0  9993
2 20465  82.4879 260.5254 0016071 149.1048 211.1125 14.98961880742306
SL-14 R/B               
1 20466U 90010B   22200.36690035  .00000285  00000+0  33285-4 0  9995
2 20466  82.5022  73.6832 0020425 358.7447   1.3712 14.81562865752597
SL-14 R/B               
1 20511U 90018B   22199.90911676  .00000309  00000+0  37490-4 0  9997
2 20511  82.5223  23.8916 0018425 136.8325   1.4654 14.80214839725745
HST                     
1 20580U 90037B   22199.74963539  .00002442  00000+0  13302-3 0  9996
2 20580  28.4709 321.4151 0002685  19.0491  97.4791 15.10683649570955
SL-16 R/B               
1 20625U 90046B   22199.82772574 -.00000128  00000+0 -41789-4 0  9994
2 20625  70.9978 210.0656 0013732 175.2001 184.9256 14.14701228660297
COSMOS 2084             
1 20663U 90055A   22200.39183516  .00002286  00000+0  20784-3 0  9999
2 20663  62.7929 142.9118 0120231  53.1741 308.0309 14.92962982737079
SL-6 R/B(2)             
1 20666U 90055D   22200.04266212  .00002048  00000+0  18189-3 0  9991
2 20666  62.7852  58.5043 0130818  75.5900 285.9672 14.93303674738449
SL-8 R/B                
1 20775U 90078B   22199.85972090  .00005985  00000+0  28002-3 0  9999
2 20775  82.9261 316.7638 0549469 348.9366  10.0121 14.40308686615042
SL-8 R/B                
1 21088U 91006B   22200.17832096  .00000089  00000+0  74350-4 0  9996
2 21088  82.9417  78.8764 0023008 155.3233   0.9099 13.77200098581320
OKEAN-3                 
1 21397U 91039A   22199.64629446  .00001471  00000+0  13597-3 0  9998
2 21397  82.5216 172.8624 0018627 136.7867 223.4819 14.93764023665836
COSMOS 2151             
1 21422U 91042A   22200.16639431  .00000919  00000+0  86498-4 0  9993
2 21422  82.5003 277.5348 0013495 201.5141 158.5514 14.92725953685569
SL-14 R/B               
1 21423U 91042B   22200.02465829  .00000274  00000+0  33188-4 0  9999
2 21423  82.4933  25.0654 0016102 285.5882  74.3554 14.79959672677336
ERS-1                   
1 21574U 91050A   22199.87117198  .00000121  00000+0  54852-4 0  9990
2 21574  98.6990 169.0870 0032682 183.0276 177.0717 14.37915898624536
ARIANE 40 R/B           
1 21610U 91050F   22200.13226609  .00000206  00000+0  77301-4 0  9999
2 21610  98.3797 269.0240 0004324 121.5719 238.5892 14.41082661627664
INTERCOSMOS 25          
1 21819U 91086A   22199.99100875  .00001748  00000+0  34407-3 0  9997
2 21819  82.5908  29.7398 1514244  88.6411 288.6996 12.05857091336055
SL-8 R/B                
1 21876U 92008B   22199.88523309  .00000118  00000+0  10618-3 0  9992
2 21876  82.9270 176.4629 0033359 247.3596 175.9003 13.75710298526560
SL-8 R/B                
1 21938U 92020B   22199.67531792  .00000010  00000+0 -59635-5 0  9993
2 21938  82.9286  61.4143 0030295  51.1852   7.5265 13.75305205518303
COSMOS 2219             
1 22219U 92076A   22200.50760896 -.00000136  00000+0 -47007-4 0  9990
2 22219  71.0610 275.7402 0015933  66.5696 293.7099 14.13704255530839
SL-16 R/B               
1 22220U 92076B   22200.06206492 -.00000104  00000+0 -28323-4 0  9995
2 22220  71.0013 108.3204 0014486 314.7095 139.0723 14.16503333533850
COSMOS 2221             
1 22236U 92080A   22200.46421973  .00001061  00000+0  11132-3 0  9994
2 22236  82.5080 103.4292 0015496 316.2831  43.7158 14.88539714603647
SL-16 R/B               
1 22285U 92093B   22199.62534454 -.00000100  00000+0 -27149-4 0  9997
2 22285  71.0209 275.5995 0004676 203.2012 156.8901 14.15087731524979
COSMOS 2228             
1 22286U 92094A   22200.36778298  .00001089  00000+0  11319-3 0  9995
2 22286  82.5189  60.6573 0022331  70.7820 289.5811 14.88798322598847
SL-16 R/B               
1 22566U 93016B   22200.26236604  .00000329  00000+0  19454-3 0  9994
2 22566  71.0082 126.6138 0010836 197.4206 162.6546 14.15004630514100
COSMOS 2242             
1 22626U 93024A   22199.75165425  .00001051  00000+0  10978-3 0  9998
2 22626  82.5213  89.6978 0020263  73.1086 287.2351 14.88622824582060
SL-16 R/B               
1 22803U 93059B   22199.68932289 -.00000219  00000+0 -85263-4 0  9992
2 22803  70.9908 294.9784 0015026  74.5519 285.7263 14.16867678491122
ARIANE 40 R/B           
1 22830U 93061H   22199.76215981  .00000119  00000+0  61288-4 0  9995
2 22830  98.6620 262.4943 0009890 244.6336 115.3823 14.31568757503741
COSMOS 2278             
1 23087U 94023A   22200.37735063 -.00000116  00000+0 -36496-4 0  9999
2 23087  71.0553  75.0380 0011311 262.3791  97.6047 14.13878932457132
SL-16 R/B               
1 23088U 94023B   22199.85390227  .00000185  00000+0  12056-3 0  9998
2 23088  71.0015 342.9561 0003214 195.6737 164.4287 14.14717835457992
SL-16 R/B               
1 23343U 94074B   22199.76891233  .00000287  00000+0  47816-4 0  9997
2 23343  97.8908 252.0242 0006163 204.4589 293.4306 14.77056622490788
SL-16 R/B               
1 23405U 94077B   22199.64358131  .00000016  00000+0  32614-4 0  9991
2 23405  70.9830 269.9119 0002765 333.3121  26.7859 14.15265571428037
ERS-2                   
1 23560U 95021A   22199.82774264  .00006976  00000+0  26595-3 0  9993
2 23560  98.5016 109.5621 0004605  90.3743 269.8020 15.27083710458101
ARIANE 40+ R/B          
1 23561U 95021B   22199.79540650  .00000194  00000+0  78579-4 0  9996
2 23561  98.6212 257.2251 0007652 145.8899 325.8933 14.38166084427990
SL-16 R/B               
1 23705U 95058B   22199.86389345  .00000071  00000+0  61092-4 0  9992
2 23705  71.0235  91.3812 0013327 337.0741  22.9785 14.15180261379698
SL-16 R/B               
1 24298U 96051B   22199.90020764  .00000066  00000+0  61941-4 0  9993
2 24298  70.8205 104.4516 0017970 293.7650  66.1585 14.12417655333877
ORBVIEW 2 (SEASTAR)     
1 24883U 97037A   22199.84121241  .00000208  00000+0  91017-4 0  9998
2 24883  98.6843 323.3151 0002812  42.8588 317.2815 14.33756705317808
SL-16 R/B               
1 25400U 98043G   22199.80138664  .00000034  00000+0  32986-4 0  9992
2 25400  98.6729 135.5823 0008819 279.4445  80.5737 14.25520562249481
SL-16 R/B               
1 25407U 98045B   22199.88232026  .00000127  00000+0  88636-4 0  9992
2 25407  71.0124  97.3042 0009654 257.0565 102.9480 14.15867741238858
ISS (ZARYA)             
1 25544U 98067A   22200.38661497  .00008570  00000+0  15780-3 0  9993
2 25544  51.6408 177.1044 0004978  27.2807 128.3689 15.50026916350172
CZ-4B R/B               
1 25732U 99025C   22199.71816225  .00000032  00000+0  37143-4 0  9995
2 25732  98.8520 240.9674 0037058 196.5885 271.8385 14.17736175199689
OKEAN-O                 
1 25860U 99039A   22200.36432111  .00000405  00000+0  65050-4 0  9996
2 25860  98.1366 240.4993 0001016  72.2681 287.8639 14.76977259238059
SL-16 R/B               
1 25861U 99039B   22200.34507157  .00000360  00000+0  56350-4 0  9991
2 25861  98.1770 227.8705 0014545 227.0350 132.9641 14.78854031240345
DELTA 2 R/B             
1 25876U 99041E   22199.54597786  .00001344  00000+0  26769-3 0  9999
2 25876  51.7616 184.7762 0529962  44.5960 319.6362 14.05084790175597
HELIOS 1B               
1 25977U 99064A   22199.71491731  .00000422  00000+0  59307-4 0  9999
2 25977  98.3210  35.1863 0002422  71.1435 289.0040 14.82815121487917
TERRA                   
1 25994U 99068A   22200.47912988  .00000316  00000+0  79871-4 0  9990
2 25994  98.1358 271.6636 0001412 100.2009 348.7261 14.57161080201283
SL-16 R/B               
1 26070U 00006B   22200.18908750 -.00000287  00000+0 -12231-3 0  9995
2 26070  71.0028  12.5233 0015102  39.0982 321.1229 14.15491841160387
TITAN 4B R/B            
1 26474U 00047B   22199.57876556  .00001713  00000+0  15563-3 0  9990
2 26474  67.9933 139.6842 0050242  79.7069 280.9733 14.96925459193184
ENVISAT                 
1 27386U 02009A   22200.47925715  .00000119  00000+0  52931-4 0  9997
2 27386  98.1848 180.0878 0001367  88.2024  77.0912 14.38139898 68137
